<?xml version="1.0" encoding="UTF-8"?>
<ndm xmlns:xsi="https://www.w3.org/2001/XMLSchema-instance" xsi:noNamespaceSchemaLocation="https://sanaregistry.org/r/ndmxml/ndmxml-1.0-master.xsd">
<omm id="CCSDS_OMM_VERS" version="2.0">
<header><CREATION_DATE/><ORIGINATOR/></header><body><segment><metadata><OBJECT_NAME>NUSAT-6 (HYPATIA)</OBJECT_NAME><OBJECT_ID>2020-061A</OBJECT_ID><CENTER_NAME>EARTH</CENTER_NAME><REF_FRAME>TEME</REF_FRAME><TIME_SYSTEM>UTC</TIME_SYSTEM><MEAN_ELEMENT_THEORY>SGP4</MEAN_ELEMENT_THEORY></metadata><data><meanElements><EPOCH>2020-09-08T19:46:57.503424</EPOCH><MEAN_MOTION>15.15060911</MEAN_MOTION><ECCENTRICITY>.0006079</ECCENTRICITY><INCLINATION>97.4681</INCLINATION><RA_OF_ASC_NODE>325.8157</RA_OF_ASC_NODE><ARG_OF_PERICENTER>198.5434</ARG_OF_PERICENTER><MEAN_ANOMALY>161.5578</MEAN_ANOMALY></meanElements><tleParameters><EPHEMERIS_TYPE>0</EPHEMERIS_TYPE><CLASSIFICATION_TYPE>U</CLASSIFICATION_TYPE><NORAD_CAT_ID>46272</NORAD_CAT_ID><ELEMENT_SET_NO>999</ELEMENT_SET_NO><REV_AT_EPOCH>86</REV_AT_EPOCH><BSTAR>.22708E-4</BSTAR><MEAN_MOTION_DOT>3.59E-6</MEAN_MOTION_DOT><MEAN_MOTION_DDOT>0</MEAN_MOTION_DDOT></tleParameters></data></segment></body></omm>
<omm id="CCSDS_OMM_VERS" version="2.0">
<header><CREATION_DATE/><ORIGINATOR/></header><body><segment><metadata><OBJECT_NAME>2020-061B</OBJECT_NAME><OBJECT_ID>2020-061B</OBJECT_ID><CENTER_NAME>EARTH</CENTER_NAME><REF_FRAME>TEME</REF_FRAME><TIME_SYSTEM>UTC</TIME_SYSTEM><MEAN_ELEMENT_THEORY>SGP4</MEAN_ELEMENT_THEORY></metadata><data><meanElements><EPOCH>2020-09-09T03:41:55.852224</EPOCH><MEAN_MOTION>15.15158044</MEAN_MOTION><ECCENTRICITY>.0005660</ECCENTRICITY><INCLINATION>97.4681</INCLINATION><RA_OF_ASC_NODE>326.1406</RA_OF_ASC_NODE><ARG_OF_PERICENTER>197.7023</ARG_OF_PERICENTER><MEAN_ANOMALY>162.4013</MEAN_ANOMALY></meanElements><tleParameters><EPHEMERIS_TYPE>0</EPHEMERIS_TYPE><CLASSIFICATION_TYPE>U</CLASSIFICATION_TYPE><NORAD_CAT_ID>46273</NORAD_CAT_ID><ELEMENT_SET_NO>999</ELEMENT_SET_NO><REV_AT_EPOCH>91</REV_AT_EPOCH><BSTAR>.16477E-4</BSTAR><MEAN_MOTION_DOT>2.44E-6</MEAN_MOTION_DOT><MEAN_MOTION_DDOT>0</MEAN_MOTION_DDOT></tleParameters></data></segment></body></omm>
<omm id="CCSDS_OMM_VERS" version="2.0">
<header><CREATION_DATE/><ORIGINATOR/></header><body><segment><metadata><OBJECT_NAME>2020-061C</OBJECT_NAME><OBJECT_ID>2020-061C</OBJECT_ID><CENTER_NAME>EARTH</CENTER_NAME><REF_FRAME>TEME</REF_FRAME><TIME_SYSTEM>UTC</TIME_SYSTEM><MEAN_ELEMENT_THEORY>SGP4</MEAN_ELEMENT_THEORY></metadata><data><meanElements><EPOCH>2020-09-09T03:41:31.829568</EPOCH><MEAN_MOTION>15.15227909</MEAN_MOTION><ECCENTRICITY>.0005305</ECCENTRICITY><INCLINATION>97.4682</INCLINATION><RA_OF_ASC_NODE>326.1411</RA_OF_ASC_NODE><ARG_OF_PERICENTER>197.5540</ARG_OF_PERICENTER><MEAN_ANOMALY>162.5510</MEAN_ANOMALY></meanElements><tleParameters><EPHEMERIS_TYPE>0</EPHEMERIS_TYPE><CLASSIFICATION_TYPE>U</CLASSIFICATION_TYPE><NORAD_CAT_ID>46274</NORAD_CAT_ID><ELEMENT_SET_NO>999</ELEMENT_SET_NO><REV_AT_EPOCH>91</REV_AT_EPOCH><BSTAR>.15525E-4</BSTAR><MEAN_MOTION_DOT>2.26E-6</MEAN_MOTION_DOT><MEAN_MOTION_DDOT>0</MEAN_MOTION_DDOT></tleParameters></data></segment></body></omm>
<omm id="CCSDS_OMM_VERS" version="2.0">
<header><CREATION_DATE/><ORIGINATOR/></header><body><segment><metadata><OBJECT_NAME>2020-061D</OBJECT_NAME><OBJECT_ID>2020-061D</OBJECT_ID><CENTER_NAME>EARTH</CENTER_NAME><REF_FRAME>TEME</REF_FRAME><TIME_SYSTEM>UTC</TIME_SYSTEM><MEAN_ELEMENT_THEORY>SGP4</MEAN_ELEMENT_THEORY></metadata><data><meanElements><EPOCH>2020-09-09T03:37:21.586656</EPOCH><MEAN_MOTION>15.15957850</MEAN_MOTION><ECCENTRICITY>.0000758</ECCENTRICITY><INCLINATION>97.4642</INCLINATION><RA_OF_ASC_NODE>326.1419</RA_OF_ASC_NODE><ARG_OF_PERICENTER>135.4381</ARG_OF_PERICENTER><MEAN_ANOMALY>224.6912</MEAN_ANOMALY></meanElements><tleParameters><EPHEMERIS_TYPE>0</EPHEMERIS_TYPE><CLASSIFICATION_TYPE>U</CLASSIFICATION_TYPE><NORAD_CAT_ID>46275</NORAD_CAT_ID><ELEMENT_SET_NO>999</ELEMENT_SET_NO><REV_AT_EPOCH>91</REV_AT_EPOCH><BSTAR>.12280E-4</BSTAR><MEAN_MOTION_DOT>1.7E-6</MEAN_MOTION_DOT><MEAN_MOTION_DDOT>0</MEAN_MOTION_DDOT></tleParameters></data></segment></body></omm>
<omm id="CCSDS_OMM_VERS" version="2.0">
<header><CREATION_DATE/><ORIGINATOR/></header><body><segment><metadata><OBJECT_NAME>2020-061F</OBJECT_NAME><OBJECT_ID>2020-061F</OBJECT_ID><CENTER_NAME>EARTH</CENTER_NAME><REF_FRAME>TEME</REF_FRAME><TIME_SYSTEM>UTC</TIME_SYSTEM><MEAN_ELEMENT_THEORY>SGP4</MEAN_ELEMENT_THEORY></metadata><data><meanElements><EPOCH>2020-09-09T03:36:43.214688</EPOCH><MEAN_MOTION>15.16069364</MEAN_MOTION><ECCENTRICITY>.0000276</ECCENTRICITY><INCLINATION>97.4642</INCLINATION><RA_OF_ASC_NODE>326.1425</RA_OF_ASC_NODE><ARG_OF_PERICENTER>149.1244</ARG_OF_PERICENTER><MEAN_ANOMALY>211.0005</MEAN_ANOMALY></meanElements><tleParameters><EPHEMERIS_TYPE>0</EPHEMERIS_TYPE><CLASSIFICATION_TYPE>U</CLASSIFICATION_TYPE><NORAD_CAT_ID>46277</NORAD_CAT_ID><ELEMENT_SET_NO>999</ELEMENT_SET_NO><REV_AT_EPOCH>91</REV_AT_EPOCH><BSTAR>.16233E-4</BSTAR><MEAN_MOTION_DOT>2.47E-6</MEAN_MOTION_DOT><MEAN_MOTION_DDOT>0</MEAN_MOTION_DDOT></tleParameters></data></segment></body></omm>
<omm id="CCSDS_OMM_VERS" version="2.0">
<header><CREATION_DATE/><ORIGINATOR/></header><body><segment><metadata><OBJECT_NAME>GHGSAT-C1</OBJECT_NAME><OBJECT_ID>2020-061G</OBJECT_ID><CENTER_NAME>EARTH</CENTER_NAME><REF_FRAME>TEME</REF_FRAME><TIME_SYSTEM>UTC</TIME_SYSTEM><MEAN_ELEMENT_THEORY>SGP4</MEAN_ELEMENT_THEORY></metadata><data><meanElements><EPOCH>2020-09-09T03:35:20.728608</EPOCH><MEAN_MOTION>15.16311071</MEAN_MOTION><ECCENTRICITY>.0001746</ECCENTRICITY><INCLINATION>97.4643</INCLINATION><RA_OF_ASC_NODE>326.1437</RA_OF_ASC_NODE><ARG_OF_PERICENTER>9.2492</ARG_OF_PERICENTER><MEAN_ANOMALY>350.8773</MEAN_ANOMALY></meanElements><tleParameters><EPHEMERIS_TYPE>0</EPHEMERIS_TYPE><CLASSIFICATION_TYPE>U</CLASSIFICATION_TYPE><NORAD_CAT_ID>46278</NORAD_CAT_ID><ELEMENT_SET_NO>999</ELEMENT_SET_NO><REV_AT_EPOCH>91</REV_AT_EPOCH><BSTAR>.23479E-4</BSTAR><MEAN_MOTION_DOT>3.89E-6</MEAN_MOTION_DOT><MEAN_MOTION_DDOT>0</MEAN_MOTION_DDOT></tleParameters></data></segment></body></omm>
<omm id="CCSDS_OMM_VERS" version="2.0">
<header><CREATION_DATE/><ORIGINATOR/></header><body><segment><metadata><OBJECT_NAME>STARLINK-1734</OBJECT_NAME><OBJECT_ID>2020-062A</OBJECT_ID><CENTER_NAME>EARTH</CENTER_NAME><REF_FRAME>TEME</REF_FRAME><TIME_SYSTEM>UTC</TIME_SYSTEM><MEAN_ELEMENT_THEORY>SGP4</MEAN_ELEMENT_THEORY></metadata><data><meanElements><EPOCH>2020-09-08T22:00:00.999936</EPOCH><MEAN_MOTION>16.15915973</MEAN_MOTION><ECCENTRICITY>.0031785</ECCENTRICITY><INCLINATION>52.9966</INCLINATION><RA_OF_ASC_NODE>43.3067</RA_OF_ASC_NODE><ARG_OF_PERICENTER>58.6134</ARG_OF_PERICENTER><MEAN_ANOMALY>218.3195</MEAN_ANOMALY></meanElements><tleParameters><EPHEMERIS_TYPE>0</EPHEMERIS_TYPE><CLASSIFICATION_TYPE>U</CLASSIFICATION_TYPE><NORAD_CAT_ID>46325</NORAD_CAT_ID><ELEMENT_SET_NO>999</ELEMENT_SET_NO><REV_AT_EPOCH>211</REV_AT_EPOCH><BSTAR>.10248E-3</BSTAR><MEAN_MOTION_DOT>1.61431E-3</MEAN_MOTION_DOT><MEAN_MOTION_DDOT>.11734E-4</MEAN_MOTION_DDOT></tleParameters></data></segment></body></omm>

</ndm>
